[{"OBJECT_NAME":"STARLINK-31167","OBJECT_ID":"2024-005S","EPOCH":"2026-03-09T00:52:07.874400","MEAN_MOTION":15.27573821,"ECCENTRICITY":9.415e-5,"INCLINATION":43.0006,"RA_OF_ASC_NODE":77.9924,"ARG_OF_PERICENTER":260.026,"MEAN_ANOMALY":100.0485,"EPHEMERIS_TYPE":0,"CLASSIFICATION_TYPE":"U","NORAD_CAT_ID":58744,"ELEMENT_SET_NO":999,"REV_AT_EPOCH":12210,"BSTAR":2.838807e-6,"MEAN_MOTION_DOT":-1.84e-6,"MEAN_MOTION_DDOT":0},{"OBJECT_NAME":"FLOCK 4G-22","OBJECT_ID":"2025-009AN","EPOCH":"2026-03-09T22:51:40.689792","MEAN_MOTION":15.2720903,"ECCENTRICITY":8.959e-5,"INCLINATION":97.4046,"RA_OF_ASC_NODE":151.5884,"ARG_OF_PERICENTER":284.1963,"MEAN_ANOMALY":75.9176,"EPHEMERIS_TYPE":0,"CLASSIFICATION_TYPE":"U","NORAD_CAT_ID":62645,"ELEMENT_SET_NO":999,"REV_AT_EPOCH":6376,"BSTAR":0.00049035383,"MEAN_MOTION_DOT":0.00013013,"MEAN_MOTION_DDOT":0}]
